OPTICUBE 04             
1 41851U 16067D   24351.12477167  .00005207  00000+0  36753-3 0  9999
2 41851  98.0834 164.1949 0017362 162.7714 197.4104 15.05299111442587
AEROCUBE 8D             
1 41852U 16067E   24350.96944154  .00012727  00000+0  72224-3 0  9994
2 41852  98.1098 170.8634 0003820 205.3506 154.7536 15.13096282442839
AEROCUBE 8C             
1 41853U 16067F   24350.98461430  .00013737  00000+0  77796-3 0  9999
2 41853  98.0924 169.0278 0007225 138.9771 221.2003 15.13134214442825
PROMETHEUS 2-1          
1 41854U 16067G   24351.00265768  .00037843  00000+0  12908-2 0  9997
2 41854  98.0916 180.2468 0009027 146.0614 214.1204 15.30214650443402
PROMETHEUS 2-3          
1 41855U 16067H   24350.81028088  .00039376  00000+0  13473-2 0  9999
2 41855  98.0857 179.3506 0007466 157.6084 202.5482 15.30115888443371
CORVUS BC2              
1 42846U 17042X   24350.48645242  .00006799  00000+0  54130-3 0  9993
2 42846  97.3667 165.8764 0011645 162.5260 197.6368 15.00631244404600
CORVUS BC1              
1 42847U 17042Y   24350.76271047  .00006707  00000+0  53204-3 0  9993
2 42847  97.3670 166.5534 0011038 135.7893 224.4216 15.00780597404661
MIRATA                  
1 43015U 17073C   24350.93593565  .00054845  00000+0  17537-2 0  9990
2 43015  97.5668 235.1509 0130401 354.1827   5.7888 15.24297848383842
MAKERSAT 0              
1 43016U 17073D   24350.60317504  .00024129  00000+0  11517-2 0  9996
2 43016  97.5446 225.1974 0170621  26.6588 334.3286 15.07033762383145
SIRION PATHFINDER-2     
1 43759U 18099B   24350.39359389  .00008292  00000+0  56161-3 0  9990
2 43759  97.5059  41.6580 0011176  37.2848 322.9153 15.06683168329752
CORVUS BC4              
1 43767U 18099K   24351.06539998  .00007878  00000+0  55017-3 0  9998
2 43767  97.4884  38.8955 0011530  85.9025 274.3520 15.05550002329725
MOVE-II                 
1 43780U 18099Y   24350.15421237  .00056274  00000+0  17327-2 0  9993
2 43780  97.4959  53.1680 0005054  66.9481 293.2294 15.33430985330477
SPACEBEE-7              
1 43816U 18099BL  24350.74296066  .00030044  00000+0  12889-2 0  9993
2 43816  97.5245  53.2587 0008059  23.4031 336.7571 15.22647446329929
SPACEBEE-6              
1 43818U 18099BN  24351.18441173  .00342749  00000+0  28724-2 0  9998
2 43818  97.5076  64.9063 0005656 315.4923  44.5883 15.68900987330884
SHIELDS 1               
1 43850U 18104B   24350.74739909  .00029412  00000+0  56306-3 0  9996
2 43850  85.0186 159.0618 0010310  98.8261 261.4163 15.47846096334147
SONATE                  
1 44400U 19038Q   24351.08281707  .00051423  00000+0  89258-3 0  9990
2 44400  97.7114 355.2916 0012073 159.7491 200.4241 15.50614998302098
LUCKY-7                 
1 44406U 19038W   24350.78884663  .05021753  27030-5  11969-2 0  9991
2 44406  97.6731   4.9749 0005001 197.2922 162.8202 16.29612763302722
DUCHIFAT-3              
1 44854U 19089C   24351.14775157  .00035338  00000+0  12302-2 0  9995
2 44854  36.9511  15.2673 0011740 187.5398 172.5178 15.28736533275930
M2 PATHFINDER           
1 45727U 20037E   24350.76290934  .00006138  00000+0  50001-3 0  9997
2 45727  97.7759 166.6748 0010935 223.5965 136.4395 14.99825203243136
NETSAT-4                
1 46504U 20068U   24350.62703487  .00019018  00000+0  81990-3 0  9994
2 46504  97.8276 313.7816 0011334  91.8284 268.4249 15.22554470231706
NETSAT-3                
1 46505U 20068V   24351.14571728  .00016900  00000+0  74550-3 0  9995
2 46505  97.8263 313.5986 0010581  98.5693 261.6741 15.21805843231760
NETSAT-1                
1 46506U 20068W   24350.80824685  .00013139  00000+0  63536-3 0  9994
2 46506  97.8287 312.1254 0009403 109.0647 251.1605 15.18707781231635
NETSAT-2                
1 46507U 20068X   24350.84833491  .00019244  00000+0  83350-3 0  9993
2 46507  97.8264 313.5892 0008563 110.1106 250.1051 15.22418908231687
WILDTRACKCUBE-SIMBA     
1 47941U 21022K   24351.13261896  .00030028  00000+0  96360-3 0  9992
2 47941  97.4409 247.2631 0010206 214.7969 145.2607 15.32219732206213
GRBALPHA                
1 47959U 21022AD  24351.13745362  .00062461  00000+0  13846-2 0  9999
2 47959  97.4402 251.0371 0007692 188.7082 171.4034 15.43509052205280
BEESAT-8                
1 48085U 21022AP  24350.53995438  .00220034  00000+0  21864-2 0  9995
2 48085  97.4752 257.4058 0007345 131.2048 228.9845 15.65016668205852
LEDSAT                  
1 49069U 21073D   24350.61724565  .00041321  00000+0  10866-2 0  9994
2 49069  97.4163  61.8350 0014385   1.2543 358.8735 15.38359966184208
ROBUSTA-1F (MTCUBE 2)   
1 53109U 22080E   24350.72193947 -.00000003  00000+0  00000+0 0  9998
2 53109  70.1193 128.9999 0008337  48.6504 311.4872  6.42584123 56828
SITRO-AIS 5 (KATYS)     
1 57176U 23091L   24351.12666862  .00013807  00000+0  75341-3 0  9994
2 57176  97.5874  42.1875 0015011 213.7398 146.2879 15.14373323 80979
SITRO-AIS 6 (CHIRKIN)   
1 57192U 23091AC  24351.10715384  .00014304  00000+0  78021-3 0  9995
2 57192  97.5871  42.1984 0014922 213.9050 146.1229 15.14380201 80973
SITRO-AIS 8 (ANOKHIN)   
1 57193U 23091AD  24351.14480922  .00015128  00000+0  80659-3 0  9992
2 57193  97.5874  42.4438 0014449 213.7930 146.2383 15.15181777 80995
SITRO-AIS 7 (FARTUSHNIY)
1 57194U 23091AE  24351.12022961  .00013811  00000+0  75558-3 0  9995
2 57194  97.5870  42.1721 0014766 214.3261 145.7017 15.14283965 80977
SITRO-AIS 10 (BURDAEV)  
1 57199U 23091AK  24351.13090184  .00017025  00000+0  84745-3 0  9992
2 57199  97.5885  43.9439 0010342 197.8017 162.2856 15.17621799 81085
SITRO-AIS 9 (SHCHUKIN)  
1 57201U 23091AM  24351.13365908  .00016959  00000+0  84589-3 0  9996
2 57201  97.5881  43.9056 0010317 197.8709 162.2163 15.17551323 81086
SITRO-AIS 12 (SMIRENNIY)
1 57204U 23091AQ  24351.13867263  .00016696  00000+0  82821-3 0  9995
2 57204  97.5891  44.1173 0010372 191.5280 168.5718 15.17747415 81094
SITRO-AIS 11 (SHEFFER)  
1 57208U 23091AU  24351.11059753  .00017890  00000+0  88348-3 0  9991
2 57208  97.5888  44.1386 0010216 192.5851 167.5129 15.17888300 81096
VERONIKA                
1 58261U 23174F   24351.15929077  .00049256  00000+0  13580-2 0  9998
2 58261  97.4407  65.8165 0008496 319.5022  40.5589 15.36921952 61499
ROBUSTA-1E (ENSO)       
1 58470U 23185J   24351.17092167  .00038173  00000+0  10793-2 0  9994
2 58470  97.4026  57.1902 0009573 358.5345   1.5869 15.36185492 57943
SITRO-AIS 29            
1 59052U 24039B   24351.14322767  .00072075  00000+0  13904-2 0  9995
2 59052  97.4092 314.0112 0007536 297.7942  62.2543 15.47551197 44529
SITRO-AIS 30            
1 59053U 24039C   24351.17081754  .00067867  00000+0  13340-2 0  9994
2 59053  97.4094 313.9683 0007970 299.0546  60.9905 15.47021532 44511
SITRO-AIS 31            
1 59054U 24039D   24351.13499535  .00072002  00000+0  13937-2 0  9990
2 59054  97.4092 314.0164 0007809 299.0781  60.9686 15.47451086 44537
SITRO-AIS 33            
1 59055U 24039E   24351.17730580  .00069525  00000+0  13401-2 0  9995
2 59055  97.4093 314.1254 0007355 300.3414  59.7108 15.47587367 44532
SITRO-AIS 35            
1 59056U 24039F   24351.17086971  .00072120  00000+0  13860-2 0  9998
2 59056  97.4093 314.1284 0007283 301.4805  58.5733 15.47662712 44531
SITRO-AIS 32            
1 59057U 24039G   24351.13705359  .00068661  00000+0  13395-2 0  9991
2 59057  97.4099 314.0286 0007637 300.8970  59.1528 15.47239235 44526
SITRO-AIS 34            
1 59058U 24039H   24350.85351063  .00065054  00000+0  12568-2 0  9993
2 59058  97.4092 313.7966 0007403 301.6943  58.3585 15.47539227 44484
SITRO-AIS 36            
1 59059U 24039J   24350.89697386  .00060421  00000+0  11627-2 0  9997
2 59059  97.4094 313.8847 0007416 302.4924  57.5608 15.47673460 44494
SITRO-AIS 49            
1 59060U 24039K   24351.17442484  .00070052  00000+0  13616-2 0  9999
2 59060  97.4098 314.1293 0007364 300.7748  59.2776 15.47342605 44530
SITRO-AIS 50            
1 59061U 24039L   24351.12489609  .00076358  00000+0  14460-2 0  9998
2 59061  97.4095 314.1884 0007134 300.0497  60.0045 15.48071929 44531
SITRO-AIS 51            
1 59062U 24039M   24351.12210915  .00076977  00000+0  14516-2 0  9990
2 59062  97.4091 314.1895 0006993 301.5131  58.5436 15.48191806 44536
SITRO-AIS 52            
1 59063U 24039N   24351.10355781  .00071221  00000+0  13415-2 0  9994
2 59063  97.4095 314.2201 0006775 300.5689  59.4892 15.48250643 44539
SITRO-AIS 25            
1 59066U 24039R   24351.06952830  .00007053  00000+0  62499-3 0  9999
2 59066  95.3862 220.7099 0164737  75.9046 286.0422 14.86463388 43090
SITRO-AIS 26            
1 59067U 24039S   24351.07860099  .00006194  00000+0  55098-3 0  9998
2 59067  95.3862 220.7009 0164890  75.9621 285.9869 14.86331880 43095
SITRO-AIS 27            
1 59068U 24039T   24351.10991844  .00006646  00000+0  58767-3 0  9994
2 59068  95.3862 220.7863 0164219  75.4841 286.4535 14.86610827 43107
SITRO-AIS 28            
1 59071U 24039U   24351.10177163  .00006399  00000+0  56558-3 0  9999
2 59071  95.3863 220.7969 0164051  75.4652 286.4703 14.86654226 43101
GRBBETA                 
1 60237U 24128C   24349.70698807  .00007951  00000+0  64839-3 0  9996
2 60237  61.9937 335.0008 0031394  13.6143 346.5786 14.99801383 23642
OOV-CUBE (TUBSAT-30)    
1 60240U 24128F   24350.73990078  .00005226  00000+0  44850-3 0  9994
2 60240  61.9978 332.2933 0029626   9.5035 350.6608 14.98389630 23796
ROBUSTA-3A (MEDITERRAN*)
1 60243U 24128J   24350.22561739  .00013713  00000+0  10958-2 0  9990
2 60243  61.9909 333.5678 0029771   3.7754 356.3554 15.00174500 23726
